NORAD_CAT_ID,OBJECT_NAME,OBJECT_TYPE,EPOCH,MEAN_MOTION,ECCENTRICITY,INCLINATION,RA_OF_ASC_NODE,ARG_OF_PERICENTER,MEAN_ANOMALY,BSTAR,MEAN_MOTION_DOT,MEAN_MOTION_DDOT,TLE_LINE0,TLE_LINE1,TLE_LINE2,SEMIMAJOR_AXIS,PERIOD,APOGEE,PERIGEE,DECAYED
54763.0,STARLINK-5191,PAYLOAD,2023-09-03 02:48:43,15.08841387,0.0001096,53.2155,207.8976,91.0838,269.028,1.6632e-05,-2.3e-07,0.0,0 STARLINK-5191,1 54763U 22175F   23246.11717010 -.00000023  00000-0  16632-4 0  9995,2 54763  53.2155 207.8976 0001096  91.0838 269.0280 15.08841387 41245,6917.876,95.437,540.499,538.983,0.0
54763.0,STARLINK-5191,PAYLOAD,2023-09-03 23:28:44,15.08839084,0.0001698,53.2168,204.0359,93.0845,267.0342,-0.00010599,-1.974e-05,0.0,0 STARLINK-5191,1 54763U 22175F   23246.97829755 -.00001974  00000-0 -10599-3 0  9991,2 54763  53.2168 204.0359 0001698  93.0845 267.0342 15.08839084 39213,6917.883,95.438,540.923,538.574,0.0
54763.0,STARLINK-5191,PAYLOAD,2023-09-04 04:14:54,15.08835021,0.0001288,53.2161,203.1436,92.3039,267.81,-6.1323e-05,-1.264e-05,0.0,0 STARLINK-5191,1 54763U 22175F   23247.17701884 -.00001264  00000-0 -61323-4 0  9990,2 54763  53.2161 203.1436 0001288  92.3039 267.8100 15.08835021 41405,6917.896,95.438,540.652,538.87,0.0
54763.0,STARLINK-5191,PAYLOAD,2023-09-04 13:47:12,15.08853461,0.0001239,53.217,201.3598,97.3313,262.782,-0.00025006,-4.267e-05,0.0,0 STARLINK-5191,1 54763U 22175F   23247.57445170 -.00004267  00000-0 -25006-3 0  9990,2 54763  53.2170 201.3598 0001239  97.3313 262.7820 15.08853461 39307,6917.839,95.437,540.561,538.847,0.0
54763.0,STARLINK-5191,PAYLOAD,2023-09-05 04:05:41,15.08839679,0.0001144,53.2168,198.6835,94.4585,265.6538,0.00012249,1.662e-05,0.0,0 STARLINK-5191,1 54763U 22175F   23248.17061413  .00001662  00000-0  12249-3 0  9990,2 54763  53.2168 198.6835 0001144  94.4585 265.6538 15.08839679 39392,6917.881,95.438,540.538,538.955,0.0
54763.0,STARLINK-5191,PAYLOAD,2023-09-05 07:16:27,15.08841459,0.0001128,53.2166,198.088,89.9512,270.1609,0.00013703,1.894e-05,0.0,0 STARLINK-5191,1 54763U 22175F   23248.30309303  .00001894  00000-0  13703-3 0  9991,2 54763  53.2166 198.0880 0001128  89.9512 270.1609 15.08841459 41577,6917.876,95.437,540.521,538.961,0.0
54763.0,STARLINK-5191,PAYLOAD,2023-09-05 16:48:46,15.08828584,0.0001062,53.217,196.3034,87.4728,272.6386,0.00014071,1.952e-05,0.0,0 STARLINK-5191,1 54763U 22175F   23248.70054160  .00001952  00000-0  14071-3 0  9997,2 54763  53.2170 196.3034 0001062  87.4728 272.6386 15.08828584 39472,6917.915,95.438,540.515,539.046,0.0
54763.0,STARLINK-5191,PAYLOAD,2023-09-06 02:21:05,15.08836459,0.0001196,53.2178,194.5214,93.776,266.3369,0.00013328,1.834e-05,0.0,0 STARLINK-5191,1 54763U 22175F   23249.09798003  .00001834  00000-0  13328-3 0  9994,2 54763  53.2178 194.5214 0001196  93.7760 266.3369 15.08836459 39532,6917.891,95.438,540.584,538.929,0.0
54763.0,STARLINK-5191,PAYLOAD,2023-09-07 05:22:38,15.088467,0.0001292,53.217,189.4636,87.6877,272.4263,6.7841e-05,7.92e-06,0.0,0 STARLINK-5191,1 54763U 22175F   23250.22405531  .00000792  00000-0  67841-4 0  9994,2 54763  53.2170 189.4636 0001292  87.6877 272.4263 15.08846700 39703,6917.86,95.437,540.619,538.831,0.0
54763.0,STARLINK-5191,PAYLOAD,2023-09-08 02:02:39,15.08842175,0.0001471,53.2166,185.5968,106.0739,254.0415,6.1289e-05,6.88e-06,0.0,0 STARLINK-5191,1 54763U 22175F   23251.08517682  .00000688  00000-0  61289-4 0  9994,2 54763  53.2166 185.5968 0001471 106.0739 254.0415 15.08842175 39836,6917.874,95.437,540.756,538.721,0.0
54763.0,STARLINK-5191,PAYLOAD,2023-09-08 05:13:25,15.0884552,0.0001524,53.2168,185.0005,109.1413,250.9745,7.041e-05,8.33e-06,0.0,0 STARLINK-5191,1 54763U 22175F   23251.21765395  .00000833  00000-0  70410-4 0  9993,2 54763  53.2168 185.0005 0001524 109.1413 250.9745 15.08845520 42019,6917.864,95.437,540.783,538.674,0.0
54763.0,STARLINK-5191,PAYLOAD,2023-09-08 22:41:56,15.09455886,0.0005268,53.2178,181.7289,172.9033,187.2035,0.005418,0.00088526,0.0,0 STARLINK-5191,1 54763U 22175F   23251.94579053  .00088526  00000-0  54180-2 0  9996,2 54763  53.2178 181.7289 0005268 172.9033 187.2035 15.09455886 39969,6915.999,95.399,541.507,534.22,0.0
54763.0,STARLINK-5191,PAYLOAD,2023-09-09 14:00:01,15.08819476,0.0001317,53.2156,178.8731,99.4403,122.8888,0.0021992,0.00034866,0.0,0 STARLINK-5191,1 54763U 22175F   23252.58334491  .00034866  00000-0  21992-2 0  9995,2 54763  53.2156 178.8731 0001317  99.4403 122.8888 15.08819476 40061,6917.943,95.439,540.719,538.897,0.0
54763.0,STARLINK-5191,PAYLOAD,2023-09-10 04:54:59,15.08847345,0.0001354,53.2172,176.0824,103.7045,256.4098,0.00011738,1.581e-05,0.0,0 STARLINK-5191,1 54763U 22175F   23253.20485148  .00001581  00000-0  11738-3 0  9997,2 54763  53.2172 176.0824 0001354 103.7045 256.4098 15.08847345 40157,6917.858,95.437,540.66,538.786,0.0
54763.0,STARLINK-5191,PAYLOAD,2023-09-10 19:13:28,15.08829553,0.0002222,53.2173,173.4053,121.0505,239.0706,6.3215e-05,7.18e-06,0.0,0 STARLINK-5191,1 54763U 22175F   23253.80102281  .00000718  00000-0  63215-4 0  9996,2 54763  53.2173 173.4053 0002222 121.0505 239.0706 15.08829553 40246,6917.912,95.438,541.314,538.24,0.0
54763.0,STARLINK-5191,PAYLOAD,2023-09-11 11:07:19,15.08840637,0.0001263,53.2177,170.4334,100.0719,260.0416,2.0871e-05,4.4e-07,0.0,0 STARLINK-5191,1 54763U 22175F   23254.46342462  .00000044  00000-0  20871-4 0  9999,2 54763  53.2177 170.4334 0001263 100.0719 260.0416 15.08840637 42506,6917.878,95.438,540.617,538.87,0.0
54763.0,STARLINK-5191,PAYLOAD,2023-09-12 01:25:47,15.08851472,0.0001338,53.2176,167.759,98.9196,261.1947,0.00012885,1.764e-05,0.0,0 STARLINK-5191,1 54763U 22175F   23255.05957572  .00001764  00000-0  12885-3 0  9994,2 54763  53.2176 167.7590 0001338  98.9196 261.1947 15.08851472 40435,6917.845,95.437,540.636,538.785,0.0
54763.0,STARLINK-5191,PAYLOAD,2023-09-12 17:19:39,15.08834293,0.0001354,53.2168,164.7859,92.2148,267.9,0.00017435,2.488e-05,0.0,0 STARLINK-5191,1 54763U 22175F   23255.72198760  .00002488  00000-0  17435-3 0  9994,2 54763  53.2168 164.7859 0001354  92.2148 267.9000 15.08834293 40530,6917.898,95.438,540.7,538.826,0.0
54763.0,STARLINK-5191,PAYLOAD,2023-09-13 04:27:20,15.08852528,0.0001341,53.2165,162.7028,88.442,271.6726,0.00030308,4.541e-05,0.0,0 STARLINK-5191,1 54763U 22175F   23256.18565787  .00004541  00000-0  30308-3 0  9998,2 54763  53.2165 162.7028 0001341  88.4420 271.6726 15.08852528 40605,6917.842,95.437,540.635,538.779,0.0
54763.0,STARLINK-5191,PAYLOAD,2023-09-13 21:56:35,15.08847428,0.0001568,53.2179,159.4342,101.4929,258.624,6.9408e-05,8.17e-06,0.0,0 STARLINK-5191,1 54763U 22175F   23256.91429818  .00000817  00000-0  69408-4 0  9999,2 54763  53.2179 159.4342 0001568 101.4929 258.6240 15.08847428 42873,6917.858,95.437,540.807,538.638,0.0
54763.0,STARLINK-5191,PAYLOAD,2023-09-14 02:42:44,15.08857919,0.000127,53.2161,158.5373,87.6376,272.4762,0.00016272,2.304e-05,0.0,0 STARLINK-5191,1 54763U 22175F   23257.11301050  .00002304  00000-0  16272-3 0  9992,2 54763  53.2161 158.5373 0001270  87.6376 272.4762 15.08857919 42902,6917.826,95.436,540.569,538.812,0.0
54763.0,STARLINK-5191,PAYLOAD,2023-09-14 17:01:13,15.08835764,0.0001724,53.2169,155.8655,88.0528,272.0661,-2.4338e-05,-6.75e-06,0.0,0 STARLINK-5191,1 54763U 22175F   23257.70918605 -.00000675  00000-0 -24338-4 0  9991,2 54763  53.2169 155.8655 0001724  88.0528 272.0661 15.08835764 40839,6917.893,95.438,540.951,538.566,0.0
54763.0,STARLINK-5191,PAYLOAD,2023-09-15 00:58:09,15.08834593,0.0001472,53.2165,154.3781,83.9545,276.1614,-2.7595e-05,-7.27e-06,0.0,0 STARLINK-5191,1 54763U 22175F   23258.04038735 -.00000727  00000-0 -27595-4 0  9992,2 54763  53.2165 154.3781 0001472  83.9545 276.1614 15.08834593 43040,6917.897,95.438,540.78,538.744,0.0
54763.0,STARLINK-5191,PAYLOAD,2023-09-15 23:13:32,15.08851918,0.0001386,53.2164,150.2145,86.6233,273.4918,0.00035042,5.295e-05,0.0,0 STARLINK-5191,1 54763U 22175F   23258.96774101  .00005295  00000-0  35042-3 0  9995,2 54763  53.2164 150.2145 0001386  86.6233 273.4918 15.08851918 41029,6917.844,95.437,540.668,538.75,0.0
54763.0,STARLINK-5191,PAYLOAD,2023-09-16 02:24:18,15.0885861,0.0001446,53.2164,149.6185,86.6862,273.4295,0.00049488,7.601e-05,0.0,0 STARLINK-5191,1 54763U 22175F   23259.10021879  .00007601  00000-0  49488-3 0  9991,2 54763  53.2164 149.6185 0001446  86.6862 273.4295 15.08858610 43206,6917.824,95.436,540.689,538.688,0.0
54763.0,STARLINK-5191,PAYLOAD,2023-09-16 16:42:47,15.08838603,0.000133,53.216,146.9435,78.0008,282.1133,0.00014755,2.061e-05,0.0,0 STARLINK-5191,1 54763U 22175F   23259.69638777  .00002061  00000-0  14755-3 0  9990,2 54763  53.2160 146.9435 0001330  78.0008 282.1133 15.08838603 41137,6917.885,95.438,540.67,538.83,0.0
54763.0,STARLINK-5191,PAYLOAD,2023-09-17 02:15:06,15.08847843,0.0001393,53.2161,145.1589,94.907,265.2081,0.00064276,9.959e-05,0.0,0 STARLINK-5191,1 54763U 22175F   23260.09382549  .00009959  00000-0  64276-3 0  9995,2 54763  53.2161 145.1589 0001393  94.9070 265.2081 15.08847843 41190,6917.856,95.437,540.685,538.758,0.0
54763.0,STARLINK-5191,PAYLOAD,2023-09-18 02:05:53,15.08857536,0.0001397,53.216,140.6977,96.2055,263.9096,0.00072819,0.00011326,0.0,0 STARLINK-5191,1 54763U 22175F   23261.08742308  .00011326  00000-0  72819-3 0  9991,2 54763  53.2160 140.6977 0001397  96.2055 263.9096 15.08857536 41340,6917.827,95.436,540.658,538.725,0.0
54763.0,STARLINK-5191,PAYLOAD,2023-09-18 21:10:31,15.08848781,0.0001446,53.2164,137.1299,101.7867,258.3287,0.00037947,5.758e-05,0.0,0 STARLINK-5191,1 54763U 22175F   23261.88230543  .00005758  00000-0  37947-3 0  9997,2 54763  53.2164 137.1299 0001446 101.7867 258.3287 15.08848781 43625,6917.854,95.437,540.719,538.718,0.0
54763.0,STARLINK-5191,PAYLOAD,2023-09-19 00:21:17,15.08853633,0.0001361,53.2163,136.5366,91.4495,268.6653,0.00054386,8.381e-05,0.0,0 STARLINK-5191,1 54763U 22175F   23262.01478448  .00008381  00000-0  54386-3 0  9992,2 54763  53.2163 136.5366 0001361  91.4495 268.6653 15.08853633 41485,6917.839,95.437,540.645,538.762,0.0
